0 SL-18 DEB
1 22599U 93014E   13281.83631258  .00000983  00000-0  28944-3 0  1324
2 22599 075.7568 094.2325 0160887 076.6056 008.8266 14.37075736 71463
0 SL-18 DEB
1 22599U 93014E   13283.93073112  .00001020  00000-0  30007-3 0  1333
2 22599 075.7569 090.7853 0160979 071.6834 044.2927 14.37085204 71764
0 SL-18 DEB
1 22599U 93014E   13286.15909841  .00000958  00000-0  28206-3 0  1345
2 22599 075.7573 087.1179 0160943 066.4618 052.7812 14.37089536 72088
0 SL-18 DEB
1 22599U 93014E   13288.51437090  .00001462  00000-0  42828-3 0  1357
2 22599 075.7578 083.2415 0160903 060.9466 357.8596 14.37096874 72428
0 SL-18 DEB
1 22599U 93014E   13290.61535933  .00001174  00000-0  34464-3 0  1364
2 22599 075.7584 079.7840 0160935 055.9975 067.4750 14.37102571 72722
0 SL-18 DEB
1 22599U 93014E   13292.76217859  .00001284  00000-0  37655-3 0  1374
2 22599 075.7585 076.2509 0160954 050.9590 014.2244 14.37106211 73034
0 SL-18 DEB
1 22599U 93014E   13294.86108619  .00001310  00000-0  38401-3 0  1381
2 22599 075.7587 072.7969 0161002 046.0427 073.1214 14.37111912 73335
